IRIDIUM 171             
1 43929U 19002H   23236.47104575  .00000100  00000+0  28719-4 0  9999
2 43929  86.3933  63.2776 0001992  86.3036 273.8387 14.34218448241654
IRIDIUM 170             
1 43930U 19002J   23236.62937327  .00000408  00000+0  60819-4 0  9995
2 43930  86.6054  63.0753 0002431  90.0194 270.1301 14.72253725248070
IRIDIUM 167             
1 43931U 19002K   23237.44146103  .00000107  00000+0  31093-4 0  9999
2 43931  86.3925  62.6922 0002051  86.0351 274.1079 14.34219026241798
IRIDIUM 181             
1 56726U 23068S   23236.73901403  .00000362  00000+0  10115-3 0  9999
2 56726  86.8596 102.3312 0003212  64.3548 295.7985 14.43578324 14225
IRIDIUM 177             
1 56727U 23068T   23237.11605485  .00001412  00000+0  18226-3 0  9992
2 56727  86.1941  96.4118 0002029  82.9720 277.1732 14.80235574 14438
IRIDIUM 174             
1 56728U 23068U   23237.11062331  .00001375  00000+0  17748-3 0  9996
2 56728  86.1958  96.4953 0002977  90.3858 269.7704 14.80215911 14430
IRIDIUM 178             
1 56729U 23068V   23236.56393763  .00001276  00000+0  16451-3 0  9991
2 56729  86.5750 100.1186 0002192  90.0725 270.0748 14.80219663 14357
IRIDIUM 179             
1 56730U 23068W   23236.15290273  .00001357  00000+0  17519-3 0  9996
2 56730  86.6757 100.6773 0002119  85.2430 274.9034 14.80217212 14294
